ONEWEB-0055             
1 45443U 20020V   24049.92024291  .00000472  00000+0  12951-2 0  9994
2 45443  87.9007 189.8920 0001594  98.8874 261.2435 13.11415368191303
ONEWEB-0093             
1 45444U 20020W   24050.12234599 -.00000048  00000+0 -17021-3 0  9998
2 45444  87.9013 189.8312 0001727  93.6468 266.4858 13.11418639191407
ONEWEB-0029             
1 45445U 20020X   24049.91293941  .00000602  00000+0  16632-2 0  9990
2 45445  87.9010 189.8864 0001864 105.3853 254.7481 13.11417103191348
ONEWEB-0068             
1 45446U 20020Y   24050.11665611 -.00000273  00000+0 -80480-3 0  9991
2 45446  87.9012 189.8311 0001746  98.8132 261.3193 13.11419005191328
ONEWEB-0046             
1 45447U 20020Z   24050.11421949 -.00000364  00000+0 -10639-2 0  9995
2 45447  87.9012 189.8439 0001791 114.5516 245.5798 13.11418522191331
ONEWEB-0063             
1 45448U 20020AA  24050.14346435  .00000578  00000+0  15954-2 0  9995
2 45448  87.9009 189.8402 0001631 117.6812 242.4482 13.11417420191415
ONEWEB-0019             
1 45449U 20020AB  24050.11745730 -.00000483  00000+0 -13997-2 0  9996
2 45449  87.9015 189.8435 0001396 103.5099 256.6184 13.11418449191269
ONEWEB-0094             
1 45450U 20020AC  24049.86941997  .00000071  00000+0  14543-3 0  9991
2 45450  87.9257 174.7654 0001656 107.4173 252.7141 13.19254812194465
ONEWEB-0087             
1 45451U 20020AD  24049.92104868  .00000431  00000+0  11806-2 0  9995
2 45451  87.9002 189.8620 0001930 104.5919 255.5423 13.11416806191270
ONEWEB-0082             
1 45452U 20020AE  24050.07527293  .00000416  00000+0  11390-2 0  9996
2 45452  87.9009 189.8304 0001564 100.9360 259.1944 13.11415888191390
ONEWEB-0050             
1 45453U 20020AF  24049.77992794  .00002947  00000+0  31311-3 0  9991
2 45453  87.9962  58.3666 0024738 129.9550 230.3856 14.88472389213853
ONEWEB-0034             
1 45454U 20020AG  24050.09474935 -.00000295  00000+0 -86922-3 0  9995
2 45454  87.9007 189.8444 0001643 104.1100 256.0211 13.11414018191310
ONEWEB-0060             
1 45455U 20020AH  24050.10285122 -.00000499  00000+0 -14448-2 0  9995
2 45455  87.9012 189.8391 0001741 106.7875 253.3444 13.11417302191276
ONEWEB-0086             
1 45456U 20020AJ  24050.12071891 -.00000128  00000+0 -39780-3 0  9990
2 45456  87.9011 189.8412 0002061 100.0600 260.0760 13.11419115191325
ONEWEB-0088             
1 45457U 20020AK  24050.09798002 -.00000401  00000+0 -11682-2 0  9991
2 45457  87.9002 189.8158 0001728 106.0831 254.0487 13.11417092191268
ONEWEB-0102             
1 47258U 20100A   24049.85368997 -.00000137  00000+0 -41477-3 0  9991
2 47258  87.9044 159.6960 0001517 108.3051 251.8243 13.12445373153320
ONEWEB-0109             
1 47259U 20100B   24049.86163584 -.00000404  00000+0 -11585-2 0  9991
2 47259  87.9047 159.6574 0001575 105.3485 254.7818 13.12443027153152
ONEWEB-0110             
1 47260U 20100C   24049.80922314 -.00000017  00000+0 -82372-4 0  9995
2 47260  87.9040 159.6799 0001655 100.6046 259.5269 13.12444971153316
ONEWEB-0111             
1 47261U 20100D   24049.84258340  .00000232  00000+0  60881-3 0  9998
2 47261  87.9045 159.6640 0001640 104.3510 255.7801 13.12442825153156
ONEWEB-0114             
1 47262U 20100E   24049.79651532 -.00000373  00000+0 -10733-2 0  9991
2 47262  87.9042 159.6937 0001198 112.6470 247.4785 13.12444481153102
ONEWEB-0117             
1 47263U 20100F   24049.86481598 -.00000385  00000+0 -11065-2 0  9995
2 47263  87.9047 159.6504 0001759 106.6427 253.4895 13.12443252153122
ONEWEB-0118             
1 47264U 20100G   24049.82034649  .00000310  00000+0  82721-3 0  9997
2 47264  87.9046 159.6636 0001400 126.6712 233.4545 13.12444473153317
ONEWEB-0119             
1 47265U 20100H   24049.84893485 -.00000003  00000+0 -42836-4 0  9996
2 47265  87.9044 159.6965 0001719 103.2221 256.9100 13.12442582153293
ONEWEB-0120             
1 47266U 20100J   24049.79586707 -.00032448  00000+0 -90267-1 0  9993
2 47266  87.9042 159.6949 0001614 106.1436 253.9870 13.12657439153311
ONEWEB-0121             
1 47267U 20100K   24049.86004903 -.00000343  00000+0 -98901-3 0  9999
2 47267  87.9042 159.6789 0001825 103.1109 257.0223 13.12442868153238
ONEWEB-0122             
1 47268U 20100L   24049.85514867 -.00000201  00000+0 -59335-3 0  9995
2 47268  87.9042 159.6844 0001554 102.9479 257.1823 13.12443882153141
ONEWEB-0123             
1 47269U 20100M   24049.85052083 -.00000049  00000+0 -17050-3 0  9991
2 47269  87.9046 159.6950 0001654 106.8396 253.2914 13.12442628153286
ONEWEB-0124             
1 47270U 20100N   24049.83939968  .00000310  00000+0  82721-3 0  9993
2 47270  87.9045 159.6931 0001882  99.0867 261.0474 13.12444081153165
ONEWEB-0125             
1 47271U 20100P   24049.81399161  .00000165  00000+0  42244-3 0  9991
2 47271  87.9047 159.6555 0001999 115.9171 244.2164 13.12444963153220
ONEWEB-0126             
1 47272U 20100Q   24049.84178641  .00000212  00000+0  55501-3 0  9996
2 47272  87.9041 159.6616 0001560 105.8184 254.3116 13.12440630153292
ONEWEB-0127             
1 47273U 20100R   24049.80287128 -.00000221  00000+0 -64854-3 0  9997
2 47273  87.9046 159.6932 0001572 107.3458 252.7843 13.12444830153311
ONEWEB-0128             
1 47274U 20100S   24049.82511395  .00000440  00000+0  11880-2 0  9997
2 47274  87.9052 159.6850 0001740  94.9434 265.1893 13.12443557153330
ONEWEB-0129             
1 47275U 20100T   24049.80445801 -.00000210  00000+0 -61861-3 0  9996
2 47275  87.9047 159.6635 0000388 183.0208 177.0918 13.12445432153267
ONEWEB-0130             
1 47276U 20100U   24049.83305638  .00000448  00000+0  12106-2 0  9991
2 47276  87.9045 159.6678 0001603 101.4830 258.6478 13.12443454153235
ONEWEB-0131             
1 47277U 20100V   24049.82988286  .00000491  00000+0  13305-2 0  9997
2 47277  87.9047 159.6798 0001743 103.1022 257.0301 13.12443733153270
ONEWEB-0132             
1 47278U 20100W   24049.85845738 -.00000301  00000+0 -87306-3 0  9990
2 47278  87.9047 159.6761 0001948 105.9223 254.2120 13.12442790153170
ONEWEB-0133             
1 47279U 20100X   24049.79810695 -.00000337  00000+0 -97261-3 0  9998
2 47279  87.9041 159.6933 0001799 103.5908 256.5421 13.12444269153323
ONEWEB-0134             
1 47280U 20100Y   24049.84416992  .00000176  00000+0  45529-3 0  9997
2 47280  87.9039 159.6734 0001621  96.5032 263.6281 13.12441012153308
ONEWEB-0135             
1 47281U 20100Z   24049.81240144  .00000091  00000+0  21820-3 0  9993
2 47281  87.9046 159.6884 0001675 103.0689 257.0626 13.12445122153322
ONEWEB-0136             
1 47282U 20100AA  24050.06335475  .00000432  00000+0  11655-2 0  9998
2 47282  87.9045 159.6076 0001401  89.3223 270.8067 13.12443708153287
ONEWEB-0137             
1 47283U 20100AB  24049.86799034 -.00000420  00000+0 -12032-2 0  9999
2 47283  87.9042 159.6761 0001573 111.3605 248.7692 13.12443630153165
ONEWEB-0138             
1 47284U 20100AC  24049.84734439  .00000073  00000+0  16820-3 0  9998
2 47284  87.9041 159.6928 0001601 105.3800 254.7506 13.12442713153243
ONEWEB-0139             
1 47285U 20100AD  24049.81876002  .00000265  00000+0  70090-3 0  9991
2 47285  87.9047 159.6651 0001673 103.5899 256.5416 13.12444650153310
ONEWEB-0140             
1 47286U 20100AE  24049.84099448  .00000248  00000+0  65473-3 0  9996
2 47286  87.9041 159.6692 0001597 101.7507 258.3801 13.12442577153281
ONEWEB-0141             
1 47287U 20100AF  24049.86083728 -.00000314  00000+0 -90698-3 0  9996
2 47287  87.9043 159.6626 0001814 114.8309 245.3008 13.12443223153271
ONEWEB-0142             
1 47288U 20100AG  24049.85448720 -.00000211  00000+0 -62071-3 0  9993
2 47288  87.9043 159.6573 0001441 111.3219 248.8064 13.12440823153263
ONEWEB-0143             
1 47289U 20100AH  24049.80763894 -.00000099  00000+0 -31166-3 0  9996
2 47289  87.9046 159.6857 0001778 108.2728 251.8594 13.12444787153237
ONEWEB-0144             
1 47290U 20100AJ  24049.85686793 -.00000274  00000+0 -79836-3 0  9996
2 47290  87.9043 159.6600 0001308 107.7562 252.3709 13.12440808153167
ONEWEB-0145             
1 47291U 20100AK  24049.82828919  .00000495  00000+0  13400-2 0  9999
2 47291  87.9042 159.6893 0001558 107.5650 252.5649 13.12444005153353
ONEWEB-0146             
1 47292U 20100AL  24049.82354640  .00000414  00000+0  11148-2 0  9993
2 47292  87.9044 159.6723 0002215 106.8787 253.2584 13.12444447153268
ONEWEB-0147             
1 47293U 20100AM  24049.79016622 -.00000403  00000+0 -11556-2 0  9998
2 47293  87.9040 159.6776 0001571  95.6464 264.4844 13.12443334153159
ONEWEB-0115             
1 48042U 21025A   24049.71903266 -.00000390  00000+0 -11023-2 0  9993
2 48042  87.8982 129.3420 0002038 102.9316 257.2041 13.13469908142088
ONEWEB-0152             
1 48043U 21025B   24050.18880355  .00000125  00000+0  30872-3 0  9998
2 48043  87.8987 129.2413 0001891 100.8114 259.3228 13.13471545142118
ONEWEB-0153             
1 48044U 21025C   24049.78568842 -.00000304  00000+0 -86816-3 0  9997
2 48044  87.8991 129.3062 0001766 104.3189 255.8136 13.13468345142042
ONEWEB-0154             
1 48045U 21025D   24050.16340420 -.00000280  00000+0 -80214-3 0  9991
2 48045  87.8986 129.2465 0001883 102.5793 257.5547 13.13468460142069
ONEWEB-0116             
1 48046U 21025E   24049.74761497  .00000312  00000+0  82000-3 0  9994
2 48046  87.8991 129.2942 0002071 102.5687 257.5674 13.13469920142140
ONEWEB-0150             
1 48047U 21025F   24050.17927927 -.00000183  00000+0 -53648-3 0  9990
2 48047  87.8983 129.2343 0001783 108.4748 251.6575 13.13470953142096
ONEWEB-0107             
1 48048U 21025G   24049.72380693 -.00000089  00000+0 -27968-3 0  9994
2 48048  87.8984 129.3227 0001619 111.9875 248.1427 13.13470892142019
ONEWEB-0101             
1 48049U 21025H   24050.14437571  .00000124  00000+0  30571-3 0  9993
2 48049  87.8989 129.2487 0001772 100.5642 259.5686 13.13469658142042
